start=new Date('2023-06-25T00:00:00.000Z').valueOf();
sats=[{"ELEMENT_SET_NO":"999","PERIOD":"95.438","APOAPSIS":"540.522","COUNTRY_CODE":"US","SEMIMAJOR_AXIS":"6917.883","OBJECT_NAME":"STARLINK-3529","MEAN_ANOMALY":"269.8385","OBJECT_ID":"2022-016L","REV_AT_EPOCH":"7508","LAUNCH_DATE":"2022-02-21","GP_ID":"234518503","CENTER_NAME":"EARTH","NORAD_CAT_ID":"51724","SITE":"AFETR","EPHEMERIS_TYPE":"0","ARG_OF_PERICENTER":"90.2736","RCS_SIZE":"LARGE","FILE":"3941339","MEAN_ELEMENT_THEORY":"SGP4","EPOCH":"2023-06-24T01:54:49.463424","PERIAPSIS":"538.973","OBJECT_TYPE":"PAYLOAD","TLE_LINE2":"2 51724  53.2175  91.6513 0001120  90.2736 269.8385 15.08839274 75088","RA_OF_ASC_NODE":"91.6513","MEAN_MOTION":"15.08839274","CLASSIFICATION_TYPE":"U","MEAN_MOTION_DOT":"-0.00000184","REF_FRAME":"TEME","INCLINATION":"53.2175","BSTAR":"0.00000654120000","TIME_SYSTEM":"UTC","DECAY_DATE":null,"MEAN_MOTION_DDOT":"0.0000000000000","TLE_LINE1":"1 51724U 22016L   23175.07973916 -.00000184  00000-0  65412-5 0  9997","ECCENTRICITY":"0.00011200"},{"RA_OF_ASC_NODE":"89.8165","TLE_LINE2":"2 51725  53.2162  89.8165 0001323  84.7010 275.4133 15.08840879 75217","MEAN_MOTION":"15.08840879","CLASSIFICATION_TYPE":"U","MEAN_MOTION_DOT":"0.00000791","ARG_OF_PERICENTER":"84.7010","RCS_SIZE":"LARGE","EPOCH":"2023-06-24T11:43:01.984224","PERIAPSIS":"538.827","FILE":"3941916","MEAN_ELEMENT_THEORY":"SGP4","OBJECT_TYPE":"PAYLOAD","BSTAR":"0.00006779500000","INCLINATION":"53.2162","DECAY_DATE":null,"TIME_SYSTEM":"UTC","MEAN_MOTION_DDOT":"0.0000000000000","TLE_LINE1":"1 51725U 22016M   23175.48821741  .00000791  00000-0  67795-4 0  9999","ECCENTRICITY":"0.00013230","REF_FRAME":"TEME","SEMIMAJOR_AXIS":"6917.878","OBJECT_NAME":"STARLINK-3522","PERIOD":"95.437","ELEMENT_SET_NO":"999","APOAPSIS":"540.658","COUNTRY_CODE":"US","GP_ID":"234532480","SITE":"AFETR","NORAD_CAT_ID":"51725","CENTER_NAME":"EARTH","EPHEMERIS_TYPE":"0","MEAN_ANOMALY":"275.4133","OBJECT_ID":"2022-016M","REV_AT_EPOCH":"7521","LAUNCH_DATE":"2022-02-21"},{"ECCENTRICITY":"0.00009720","MEAN_MOTION_DDOT":"0.0000000000000","TLE_LINE1":"1 51726U 22016N   23175.71730072  .00000933  00000-0  76676-4 0  9998","DECAY_DATE":null,"TIME_SYSTEM":"UTC","BSTAR":"0.00007667600000","INCLINATION":"53.2178","REF_FRAME":"TEME","MEAN_MOTION_DOT":"0.00000933","CLASSIFICATION_TYPE":"U","MEAN_MOTION":"15.08835354","RA_OF_ASC_NODE":"78.7908","TLE_LINE2":"2 51726  53.2178  78.7908 0000972  94.4227 265.6877 15.08835354 75324","OBJECT_TYPE":"PAYLOAD","EPOCH":"2023-06-24T17:12:54.782208","PERIAPSIS":"539.087","FILE":"3941916","MEAN_ELEMENT_THEORY":"SGP4","RCS_SIZE":"LARGE","ARG_OF_PERICENTER":"94.4227","EPHEMERIS_TYPE":"0","SITE":"AFETR","NORAD_CAT_ID":"51726","CENTER_NAME":"EARTH","GP_ID":"234531974","LAUNCH_DATE":"2022-02-21","REV_AT_EPOCH":"7532","OBJECT_ID":"2022-016N","MEAN_ANOMALY":"265.6877","OBJECT_NAME":"STARLINK-3527","SEMIMAJOR_AXIS":"6917.895","COUNTRY_CODE":"US","APOAPSIS":"540.432","ELEMENT_SET_NO":"999","PERIOD":"95.438"},{"CLASSIFICATION_TYPE":"U","MEAN_MOTION_DOT":"0.00001417","TLE_LINE2":"2 51727  53.2176  91.3357 0001269  85.3992 274.7145 15.08840689 75090","RA_OF_ASC_NODE":"91.3357","MEAN_MOTION":"15.08840689","EPOCH":"2023-06-24T03:35:30.434784","PERIAPSIS":"538.865","FILE":"3941339","MEAN_ELEMENT_THEORY":"SGP4","OBJECT_TYPE":"PAYLOAD","ARG_OF_PERICENTER":"85.3992","RCS_SIZE":"LARGE","MEAN_MOTION_DDOT":"0.0000000000000","TLE_LINE1":"1 51727U 22016P   23175.14965781  .00001417  00000-0  10711-3 0  9998","ECCENTRICITY":"0.00012690","INCLINATION":"53.2176","BSTAR":"0.00010711000000","DECAY_DATE":null,"TIME_SYSTEM":"UTC","REF_FRAME":"TEME","OBJECT_NAME":"STARLINK-3532","SEMIMAJOR_AXIS":"6917.878","APOAPSIS":"540.621","COUNTRY_CODE":"US","PERIOD":"95.438","ELEMENT_SET_NO":"999","SITE":"AFETR","NORAD_CAT_ID":"51727","CENTER_NAME":"EARTH","EPHEMERIS_TYPE":"0","GP_ID":"234518499","OBJECT_ID":"2022-016P","REV_AT_EPOCH":"7509","LAUNCH_DATE":"2022-02-21","MEAN_ANOMALY":"274.7145"},{"ELEMENT_SET_NO":"999","PERIOD":"95.438","COUNTRY_CODE":"US","APOAPSIS":"540.767","SEMIMAJOR_AXIS":"6917.896","OBJECT_NAME":"STARLINK-3448","MEAN_ANOMALY":"263.6282","REV_AT_EPOCH":"7525","LAUNCH_DATE":"2022-02-21","OBJECT_ID":"2022-016Q","GP_ID":"234511314","EPHEMERIS_TYPE":"0","SITE":"AFETR","NORAD_CAT_ID":"51728","CENTER_NAME":"EARTH","RCS_SIZE":"LARGE","ARG_OF_PERICENTER":"96.4875","OBJECT_TYPE":"PAYLOAD","EPOCH":"2023-06-23T18:46:54.916320","PERIAPSIS":"538.756","MEAN_ELEMENT_THEORY":"SGP4","FILE":"3941064","MEAN_MOTION":"15.08834756","RA_OF_ASC_NODE":"82.9853","TLE_LINE2":"2 51728  53.2172  82.9853 0001453  96.4875 263.6282 15.08834756 75257","MEAN_MOTION_DOT":"-0.00000036","CLASSIFICATION_TYPE":"U","REF_FRAME":"TEME","DECAY_DATE":null,"TIME_SYSTEM":"UTC","INCLINATION":"53.2172","BSTAR":"0.00001580600000","ECCENTRICITY":"0.00014530","MEAN_MOTION_DDOT":"0.0000000000000","TLE_LINE1":"1 51728U 22016Q   23174.78258005 -.00000036  00000-0  15806-4 0  9990"},{"MEAN_MOTION":"15.08836150","RA_OF_ASC_NODE":"81.4489","TLE_LINE2":"2 51729  53.2161  81.4489 0001329  81.1469 278.9673 15.08836150 75306","MEAN_MOTION_DOT":"0.00000746","CLASSIFICATION_TYPE":"U","RCS_SIZE":"LARGE","ARG_OF_PERICENTER":"81.1469","OBJECT_TYPE":"PAYLOAD","FILE":"3941343","MEAN_ELEMENT_THEORY":"SGP4","PERIAPSIS":"538.838","EPOCH":"2023-06-24T02:59:44.338272","TIME_SYSTEM":"UTC","DECAY_DATE":null,"INCLINATION":"53.2161","BSTAR":"0.00006497300000","ECCENTRICITY":"0.00013290","TLE_LINE1":"1 51729U 22016R   23175.12481873  .00000746  00000-0  64973-4 0  9997","MEAN_MOTION_DDOT":"0.0000000000000","REF_FRAME":"TEME","SEMIMAJOR_AXIS":"6917.892","OBJECT_NAME":"STARLINK-3523","ELEMENT_SET_NO":"999","PERIOD":"95.438","COUNTRY_CODE":"US","APOAPSIS":"540.677","GP_ID":"234518569","EPHEMERIS_TYPE":"0","NORAD_CAT_ID":"51729","CENTER_NAME":"EARTH","SITE":"AFETR","MEAN_ANOMALY":"278.9673","REV_AT_EPOCH":"7530","LAUNCH_DATE":"2022-02-21","OBJECT_ID":"2022-016R"},{"GP_ID":"234531979","EPHEMERIS_TYPE":"0","SITE":"AFETR","NORAD_CAT_ID":"51730","CENTER_NAME":"EARTH","MEAN_ANOMALY":"257.4740","REV_AT_EPOCH":"7532","LAUNCH_DATE":"2022-02-21","OBJECT_ID":"2022-016S","SEMIMAJOR_AXIS":"6917.877","OBJECT_NAME":"STARLINK-3530","PERIOD":"95.437","ELEMENT_SET_NO":"999","COUNTRY_CODE":"US","APOAPSIS":"540.557","DECAY_DATE":null,"TIME_SYSTEM":"UTC","INCLINATION":"53.2178","BSTAR":"0.00008114400000","ECCENTRICITY":"0.00011780","MEAN_MOTION_DDOT":"0.0000000000000","TLE_LINE1":"1 51730U 22016S   23175.70257525  .00001004  00000-0  81144-4 0  9995","REF_FRAME":"TEME","MEAN_MOTION":"15.08840988","TLE_LINE2":"2 51730  53.2178  78.8609 0001178 102.6384 257.4740 15.08840988 75320","RA_OF_ASC_NODE":"78.8609","MEAN_MOTION_DOT":"0.00001004","CLASSIFICATION_TYPE":"U","RCS_SIZE":"LARGE","ARG_OF_PERICENTER":"102.6384","OBJECT_TYPE":"PAYLOAD","EPOCH":"2023-06-24T16:51:42.501600","PERIAPSIS":"538.927","MEAN_ELEMENT_THEORY":"SGP4","FILE":"3941916"},{"MEAN_MOTION_DDOT":"0.0000000000000","TLE_LINE1":"1 51731U 22016T   23175.44866186  .00000345  00000-0  39753-4 0  9992","ECCENTRICITY":"0.00012630","INCLINATION":"53.2182","BSTAR":"0.00003975300000","TIME_SYSTEM":"UTC","DECAY_DATE":null,"REF_FRAME":"TEME","CLASSIFICATION_TYPE":"U","MEAN_MOTION_DOT":"0.00000345","TLE_LINE2":"2 51731  53.2182  79.9956 0001263  88.4038 271.7099 15.08836457 75338","RA_OF_ASC_NODE":"79.9956","MEAN_MOTION":"15.08836457","FILE":"3941916","MEAN_ELEMENT_THEORY":"SGP4","PERIAPSIS":"538.882","EPOCH":"2023-06-24T10:46:04.384704","OBJECT_TYPE":"PAYLOAD","ARG_OF_PERICENTER":"88.4038","RCS_SIZE":"LARGE","NORAD_CAT_ID":"51731","CENTER_NAME":"EARTH","SITE":"AFETR","EPHEMERIS_TYPE":"0","GP_ID":"234531968","OBJECT_ID":"2022-016T","REV_AT_EPOCH":"7533","LAUNCH_DATE":"2022-02-21","MEAN_ANOMALY":"271.7099","OBJECT_NAME":"STARLINK-3514","SEMIMAJOR_AXIS":"6917.891","APOAPSIS":"540.630","COUNTRY_CODE":"US","PERIOD":"95.438","ELEMENT_SET_NO":"999"},{"SEMIMAJOR_AXIS":"6917.857","OBJECT_NAME":"STARLINK-3518","PERIOD":"95.437","ELEMENT_SET_NO":"999","COUNTRY_CODE":"US","APOAPSIS":"540.456","GP_ID":"234518511","EPHEMERIS_TYPE":"0","SITE":"AFETR","CENTER_NAME":"EARTH","NORAD_CAT_ID":"51732","MEAN_ANOMALY":"273.6551","REV_AT_EPOCH":"7532","LAUNCH_DATE":"2022-02-21","OBJECT_ID":"2022-016U","MEAN_MOTION":"15.08847667","RA_OF_ASC_NODE":"81.2497","TLE_LINE2":"2 51732  53.2175  81.2497 0001061  86.4563 273.6551 15.08847667 75322","MEAN_MOTION_DOT":"0.00000621","CLASSIFICATION_TYPE":"U","RCS_SIZE":"LARGE","ARG_OF_PERICENTER":"86.4563","OBJECT_TYPE":"PAYLOAD","PERIAPSIS":"538.988","EPOCH":"2023-06-24T04:03:18.933696","MEAN_ELEMENT_THEORY":"SGP4","FILE":"3941340","DECAY_DATE":null,"TIME_SYSTEM":"UTC","INCLINATION":"53.2175","BSTAR":"0.00005709400000","ECCENTRICITY":"0.00010610","MEAN_MOTION_DDOT":"0.0000000000000","TLE_LINE1":"1 51732U 22016U   23175.16896914  .00000621  00000-0  57094-4 0  9999","REF_FRAME":"TEME"},{"MEAN_ANOMALY":"265.4976","OBJECT_ID":"2022-016V","LAUNCH_DATE":"2022-02-21","REV_AT_EPOCH":"7528","GP_ID":"234531973","SITE":"AFETR","NORAD_CAT_ID":"51733","CENTER_NAME":"EARTH","EPHEMERIS_TYPE":"0","PERIOD":"95.437","ELEMENT_SET_NO":"999","APOAPSIS":"540.491","COUNTRY_CODE":"US","SEMIMAJOR_AXIS":"6917.862","OBJECT_NAME":"STARLINK-3525","REF_FRAME":"TEME","BSTAR":"0.00004587100000","INCLINATION":"53.2177","DECAY_DATE":null,"TIME_SYSTEM":"UTC","TLE_LINE1":"1 51733U 22016V   23175.44225191  .00000442  00000-0  45871-4 0  9995","MEAN_MOTION_DDOT":"0.0000000000000","ECCENTRICITY":"0.00011050","ARG_OF_PERICENTER":"94.6143","RCS_SIZE":"LARGE","EPOCH":"2023-06-24T10:36:50.565024","PERIAPSIS":"538.962","FILE":"3941916","MEAN_ELEMENT_THEORY":"SGP4","OBJECT_TYPE":"PAYLOAD","TLE_LINE2":"2 51733  53.2177  80.0362 0001105  94.6143 265.4976 15.08846062 75280","RA_OF_ASC_NODE":"80.0362","MEAN_MOTION":"15.08846062","CLASSIFICATION_TYPE":"U","MEAN_MOTION_DOT":"0.00000442"}];
